STARLINK-4126           
1 52867U 22062AP  26068.25056026  .00002037  00000+0  14610-3 0  9994
2 52867  53.2186  26.0897 0001258  71.3014 288.8114 15.08814909205867
LEMUR-2-STELLA          
1 60533U 24149BT  26068.72657350  .00013685  00000+0  85776-3 0  9992
2 60533  97.6764 150.9122 0001299  95.1117 265.0260 15.09464064 85488
